{
  "type": "FeatureCollection",
  "features": [
    {
      "type": "Feature",
      "properties": {
        "norad_id": 61183,
        "name": "GSAT0226 (GALILEO 31)",
        "group": "gnss",
        "lat": -0.2231939828086792,
        "lon": -134.11993210208024,
        "alt_km": 23223.912710153916,
        "timestamp": "2025-12-27T19:21:58.997601+00:00",
        "meta_object_name": "GSAT0226 (GALILEO 31)",
        "meta_object_id": "2024-167B",
        "meta_epoch": "2025-12-27T12:27:19.857312",
        "meta_mean_motion": 1.70473469,
        "meta_eccentricity": 0.0001323,
        "meta_inclination": 55.2354,
        "meta_ra_of_asc_node": 226.0305,
        "meta_arg_of_pericenter": 110.2873,
        "meta_mean_anomaly": 72.8177,
        "meta_ephemeris_type": 0,
        "meta_classification_type": "U",
        "meta_norad_cat_id": 61183,
        "meta_element_set_no": 999,
        "meta_rev_at_epoch": 792,
        "meta_bstar": 0,
        "meta_mean_motion_dot": 7.2e-07,
        "meta_mean_motion_ddot": 0,
        "tle_line1": "1 61183U 24167B   25361.51897983  .00000072  00000+0  00000+0 0  9993",
        "tle_line2": "2 61183  55.2354 226.0305 0001323 110.2873  72.8177  1.70473469  7925"
      },
      "geometry": {
        "type": "Point",
        "coordinates": [
          -134.11993210208024,
          -0.2231939828086792
        ]
      }
    },
    {
      "type": "Feature",
      "properties": {
        "norad_id": 61186,
        "name": "BEIDOU-3 M25 (C47)",
        "group": "gnss",
        "lat": 46.811692353715486,
        "lon": 79.06628258017045,
        "alt_km": 21537.585546345,
        "timestamp": "2025-12-27T19:21:58.997611+00:00",
        "meta_object_name": "BEIDOU-3 M25 (C47)",
        "meta_object_id": "2024-168B",
        "meta_epoch": "2025-12-27T08:49:57.848160",
        "meta_mean_motion": 1.86229881,
        "meta_eccentricity": 0.000539,
        "meta_inclination": 54.6289,
        "meta_ra_of_asc_node": 308.2141,
        "meta_arg_of_pericenter": 300.5996,
        "meta_mean_anomaly": 241.7182,
        "meta_ephemeris_type": 0,
        "meta_classification_type": "U",
        "meta_norad_cat_id": 61186,
        "meta_element_set_no": 999,
        "meta_rev_at_epoch": 858,
        "meta_bstar": 0,
        "meta_mean_motion_dot": -6.1e-07,
        "meta_mean_motion_ddot": 0,
        "tle_line1": "1 61186U 24168B   25361.36803065 -.00000061  00000+0  00000+0 0  9997",
        "tle_line2": "2 61186  54.6289 308.2141 0005390 300.5996 241.7182  1.86229881  8587"
      },
      "geometry": {
        "type": "Point",
        "coordinates": [
          79.06628258017045,
          46.811692353715486
        ]
      }
    },
    {
      "type": "Feature",
      "properties": {
        "norad_id": 61187,
        "name": "BEIDOU-3 M27 (C49)",
        "group": "gnss",
        "lat": -50.66449979219044,
        "lon": -171.8252784103138,
        "alt_km": 21533.745576564983,
        "timestamp": "2025-12-27T19:21:58.997621+00:00",
        "meta_object_name": "BEIDOU-3 M27 (C49)",
        "meta_object_id": "2024-168C",
        "meta_epoch": "2025-12-26T02:09:38.712960",
        "meta_mean_motion": 1.86230112,
        "meta_eccentricity": 0.00025351,
        "meta_inclination": 54.6256,
        "meta_ra_of_asc_node": 308.2421,
        "meta_arg_of_pericenter": 341.7609,
        "meta_mean_anomaly": 198.677,
        "meta_ephemeris_type": 0,
        "meta_classification_type": "U",
        "meta_norad_cat_id": 61187,
        "meta_element_set_no": 999,
        "meta_rev_at_epoch": 603,
        "meta_bstar": 0,
        "meta_mean_motion_dot": -5.6e-07,
        "meta_mean_motion_ddot": 0,
        "tle_line1": "1 61187U 24168C   25360.09003140 -.00000056  00000+0  00000+0 0  9997",
        "tle_line2": "2 61187  54.6256 308.2421 0002535 341.7609 198.6770  1.86230112  6039"
      },
      "geometry": {
        "type": "Point",
        "coordinates": [
          -171.8252784103138,
          -50.66449979219044
        ]
      }
    },
    {
      "type": "Feature",
      "properties": {
        "norad_id": 62339,
        "name": "GPS BIII-7  (PRN 01)",
        "group": "gnss",
        "lat": -16.19015448369103,
        "lon": -30.64979796787975,
        "alt_km": 20150.141272781766,
        "timestamp": "2025-12-27T19:21:58.997631+00:00",
        "meta_object_name": "GPS BIII-7  (PRN 01)",
        "meta_object_id": "2024-242A",
        "meta_epoch": "2025-12-26T14:04:39.646272",
        "meta_mean_motion": 2.00567975,
        "meta_eccentricity": 0.0012885,
        "meta_inclination": 54.9194,
        "meta_ra_of_asc_node": 341.1802,
        "meta_arg_of_pericenter": 346.4396,
        "meta_mean_anomaly": 192.481,
        "meta_ephemeris_type": 0,
        "meta_classification_type": "U",
        "meta_norad_cat_id": 62339,
        "meta_element_set_no": 999,
        "meta_rev_at_epoch": 779,
        "meta_bstar": 0,
        "meta_mean_motion_dot": -6e-07,
        "meta_mean_motion_ddot": 0,
        "tle_line1": "1 62339U 24242A   25360.58656998 -.00000060  00000+0  00000+0 0  9994",
        "tle_line2": "2 62339  54.9194 341.1802 0012885 346.4396 192.4810  2.00567975  7794"
      },
      "geometry": {
        "type": "Point",
        "coordinates": [
          -30.64979796787975,
          -16.19015448369103
        ]
      }
    },
    {
      "type": "Feature",
      "properties": {
        "norad_id": 62850,
        "name": "NVS-02 (IRNSS-1K)",
        "group": "gnss",
        "lat": -1.8828373257626192,
        "lon": 147.13630195366616,
        "alt_km": 25053.97121231174,
        "timestamp": "2025-12-27T19:21:58.997643+00:00",
        "meta_object_name": "NVS-02 (IRNSS-1K)",
        "meta_object_id": "2025-020A",
        "meta_epoch": "2025-12-27T06:03:41.647104",
        "meta_mean_motion": 2.17606169,
        "meta_eccentricity": 0.7347386,
        "meta_inclination": 20.951,
        "meta_ra_of_asc_node": 322.4021,
        "meta_arg_of_pericenter": 35.6482,
        "meta_mean_anomaly": 356.0616,
        "meta_ephemeris_type": 0,
        "meta_classification_type": "U",
        "meta_norad_cat_id": 62850,
        "meta_element_set_no": 999,
        "meta_rev_at_epoch": 723,
        "meta_bstar": 0.00025233,
        "meta_mean_motion_dot": 3.51e-06,
        "meta_mean_motion_ddot": 0,
        "tle_line1": "1 62850U 25020A   25361.25256536  .00000351  00000+0  25233-3 0  9997",
        "tle_line2": "2 62850  20.9510 322.4021 7347386  35.6482 356.0616  2.17606169  7237"
      },
      "geometry": {
        "type": "Point",
        "coordinates": [
          147.13630195366616,
          -1.8828373257626192
        ]
      }
    },
    {
      "type": "Feature",
      "properties": {
        "norad_id": 62876,
        "name": "QZS-6 (QZSS/PRN 200)",
        "group": "gnss",
        "lat": 0.05865722779510527,
        "lon": 117.5405261865055,
        "alt_km": 35794.06020806515,
        "timestamp": "2025-12-27T19:21:58.997654+00:00",
        "meta_object_name": "QZS-6 (QZSS/PRN 200)",
        "meta_object_id": "2025-023A",
        "meta_epoch": "2025-12-27T03:09:34.758720",
        "meta_mean_motion": 1.00269613,
        "meta_eccentricity": 0.00017871,
        "meta_inclination": 0.0638,
        "meta_ra_of_asc_node": 75.7358,
        "meta_arg_of_pericenter": 207.2742,
        "meta_mean_anomaly": 310.7818,
        "meta_ephemeris_type": 0,
        "meta_classification_type": "U",
        "meta_norad_cat_id": 62876,
        "meta_element_set_no": 999,
        "meta_rev_at_epoch": 323,
        "meta_bstar": 0,
        "meta_mean_motion_dot": -2.11e-06,
        "meta_mean_motion_ddot": 0,
        "tle_line1": "1 62876U 25023A   25361.13165230 -.00000211  00000+0  00000+0 0  9992",
        "tle_line2": "2 62876   0.0638  75.7358 0001787 207.2742 310.7818  1.00269613  3234"
      },
      "geometry": {
        "type": "Point",
        "coordinates": [
          117.5405261865055,
          0.05865722779510527
        ]
      }
    },
    {
      "type": "Feature",
      "properties": {
        "norad_id": 63130,
        "name": "COSMOS 2584 (704K)",
        "group": "gnss",
        "lat": -37.05461589887733,
        "lon": 58.02946471002457,
        "alt_km": 19137.19761657379,
        "timestamp": "2025-12-27T19:21:58.997667+00:00",
        "meta_object_name": "COSMOS 2584 (704K)",
        "meta_object_id": "2025-042A",
        "meta_epoch": "2025-12-24T02:34:25.549824",
        "meta_mean_motion": 2.13102981,
        "meta_eccentricity": 0.00077651,
        "meta_inclination": 64.9819,
        "meta_ra_of_asc_node": 78.7588,
        "meta_arg_of_pericenter": 220.6893,
        "meta_mean_anomaly": 139.3012,
        "meta_ephemeris_type": 0,
        "meta_classification_type": "U",
        "meta_norad_cat_id": 63130,
        "meta_element_set_no": 999,
        "meta_rev_at_epoch": 631,
        "meta_bstar": 0,
        "meta_mean_motion_dot": 1e-08,
        "meta_mean_motion_ddot": 0,
        "tle_line1": "1 63130U 25042A   25358.10724016  .00000001  00000+0  00000+0 0  9999",
        "tle_line2": "2 63130  64.9819  78.7588 0007765 220.6893 139.3012  2.13102981  6316"
      },
      "geometry": {
        "type": "Point",
        "coordinates": [
          58.02946471002457,
          -37.05461589887733
        ]
      }
    }
  ]
}